[Satellite]
VERSION=1.1
NAME=GPS BIIR-9  (PRN 21)
NICKNAME=GPS BIIR-9  (PRN 21)
TLE1=1 27704U 03010A   19316.51188866 -.00000050  00000-0  00000+0 0  9992
TLE2=2 27704  54.4708  61.9303 0248179 279.7404  75.4706  2.00569667121796
STATUS=0
